{
  "norad_id": 57122,
  "name": "STARLINK-6149",
  "history": [
    {
      "epoch": "2026-03-28T14:53:32.637696",
      "apogee_km": 559.9523209981371,
      "perigee_km": 558.1680738789555,
      "latitude_deg": -42.550687940148144,
      "longitude_deg": -48.2304025599733,
      "semi_major_axis_km": 6937.197197438546,
      "eccentricity": 0.0001286,
      "inclination_deg": 43.0007,
      "raan_deg": 171.5613,
      "arg_perigee_deg": 277.199,
      "mean_anomaly_deg": 82.8706,
      "mean_motion_rev_day": 15.02542282
    }
  ]
}