{"fetched_at":"2026-03-29T16:36:15Z","count":15609,"tles":[{"name":"STARLINK-6149","line1":"1 57122U 23090X   26087.62051664 -.00000188  00000+0  11636-5 0  9993","line2":"2 57122  43.0007 171.5613 0001286 277.1990  82.8706 15.02542282153268","category":"Starlink"}]}